STARLINK-2500           
1 48485U 21040BK  26068.62579050  .00000702  00000+0  35824-4 0  9996
2 48485  53.1601 194.0306 0001337  88.4337 271.6817 15.30194354266457
TEVEL2-3                
1 63218U 25052J   26068.64540225  .00020365  00000+0  69446-3 0  9991
2 63218  97.3994 324.7775 0004761 105.7353 254.4413 15.30377031 54855
